start=new Date('2023-06-13T00:00:00.000Z').valueOf();
sats=[{"CLASSIFICATION_TYPE":"U","ECCENTRICITY":"0.00014600","FILE":"3931303","SITE":"AFETR","TLE_LINE1":"1 48295U 21036V   23163.51216105  .00004013  00000-0  28817-3 0  9993","PERIOD":"95.592","REF_FRAME":"TEME","TIME_SYSTEM":"UTC","MEAN_MOTION":"15.06395237","OBJECT_TYPE":"PAYLOAD","MEAN_MOTION_DDOT":"0.0000000000000","OBJECT_ID":"2021-036V","INCLINATION":"53.0539","EPOCH":"2023-06-12T12:17:30.714720","MEAN_ELEMENT_THEORY":"SGP4","GP_ID":"233771189","ELEMENT_SET_NO":"999","BSTAR":"0.00028817000000","RCS_SIZE":"LARGE","EPHEMERIS_TYPE":"0","LAUNCH_DATE":"2021-04-29","REV_AT_EPOCH":"11799","OBJECT_NAME":"STARLINK-2535","SEMIMAJOR_AXIS":"6925.363","NORAD_CAT_ID":"48295","COUNTRY_CODE":"US","DECAY_DATE":null,"APOAPSIS":"548.239","MEAN_MOTION_DOT":"0.00004013","CENTER_NAME":"EARTH","PERIAPSIS":"546.217","TLE_LINE2":"2 48295  53.0539 256.0799 0001460  91.7455 268.3701 15.06395237117990","RA_OF_ASC_NODE":"256.0799","MEAN_ANOMALY":"268.3701","ARG_OF_PERICENTER":"91.7455"},{"OBJECT_TYPE":"PAYLOAD","EPOCH":"2023-06-12T10:36:40.299840","MEAN_ELEMENT_THEORY":"SGP4","MEAN_MOTION_DDOT":"0.0000000000000","OBJECT_ID":"2021-036W","INCLINATION":"53.0532","GP_ID":"233799166","ELEMENT_SET_NO":"999","SITE":"AFETR","CLASSIFICATION_TYPE":"U","FILE":"3931605","ECCENTRICITY":"0.00011200","PERIOD":"95.592","TLE_LINE1":"1 48296U 21036W   23163.44213310  .00005896  00000-0  41440-3 0  9998","TIME_SYSTEM":"UTC","REF_FRAME":"TEME","MEAN_MOTION":"15.06398021","MEAN_MOTION_DOT":"0.00005896","PERIAPSIS":"546.444","CENTER_NAME":"EARTH","MEAN_ANOMALY":"308.9242","TLE_LINE2":"2 48296  53.0532 256.3945 0001120  51.1846 308.9242 15.06398021117408","RA_OF_ASC_NODE":"256.3945","ARG_OF_PERICENTER":"51.1846","RCS_SIZE":"LARGE","LAUNCH_DATE":"2021-04-29","EPHEMERIS_TYPE":"0","BSTAR":"0.00041440000000","SEMIMAJOR_AXIS":"6925.355","REV_AT_EPOCH":"11740","OBJECT_NAME":"STARLINK-2546","COUNTRY_CODE":"US","DECAY_DATE":null,"APOAPSIS":"547.995","NORAD_CAT_ID":"48296"},{"MEAN_MOTION":"15.06388854","REF_FRAME":"TEME","TIME_SYSTEM":"UTC","PERIOD":"95.593","TLE_LINE1":"1 48297U 21036X   23163.43844128 -.00000443  00000-0 -10824-4 0  9993","FILE":"3931605","ECCENTRICITY":"0.00015630","CLASSIFICATION_TYPE":"U","SITE":"AFETR","ELEMENT_SET_NO":"999","GP_ID":"233799918","INCLINATION":"53.0530","OBJECT_ID":"2021-036X","MEAN_MOTION_DDOT":"0.0000000000000","MEAN_ELEMENT_THEORY":"SGP4","EPOCH":"2023-06-12T10:31:21.326592","OBJECT_TYPE":"PAYLOAD","NORAD_CAT_ID":"48297","DECAY_DATE":null,"APOAPSIS":"548.330","COUNTRY_CODE":"US","OBJECT_NAME":"STARLINK-2544","REV_AT_EPOCH":"11740","SEMIMAJOR_AXIS":"6925.383","BSTAR":"-0.00001082400000","EPHEMERIS_TYPE":"0","LAUNCH_DATE":"2021-04-29","RCS_SIZE":"LARGE","ARG_OF_PERICENTER":"91.4186","RA_OF_ASC_NODE":"256.4090","TLE_LINE2":"2 48297  53.0530 256.4090 0001563  91.4186 268.6982 15.06388854117400","MEAN_ANOMALY":"268.6982","CENTER_NAME":"EARTH","PERIAPSIS":"546.165","MEAN_MOTION_DOT":"-0.00000443"},{"OBJECT_ID":"2021-036Y","MEAN_MOTION_DDOT":"0.0000000000000","INCLINATION":"53.0526","EPOCH":"2023-06-12T10:26:02.999616","MEAN_ELEMENT_THEORY":"SGP4","OBJECT_TYPE":"PAYLOAD","ELEMENT_SET_NO":"999","GP_ID":"233800163","PERIOD":"95.592","TLE_LINE1":"1 48298U 21036Y   23163.43475694  .00002997  00000-0  22007-3 0  9991","CLASSIFICATION_TYPE":"U","ECCENTRICITY":"0.00019720","FILE":"3931605","SITE":"AFETR","MEAN_MOTION":"15.06396849","REF_FRAME":"TEME","TIME_SYSTEM":"UTC","CENTER_NAME":"EARTH","PERIAPSIS":"545.858","MEAN_MOTION_DOT":"0.00002997","ARG_OF_PERICENTER":"68.5397","TLE_LINE2":"2 48298  53.0526 256.4249 0001972  68.5397 291.5802 15.06396849117404","RA_OF_ASC_NODE":"256.4249","MEAN_ANOMALY":"291.5802","REV_AT_EPOCH":"11740","OBJECT_NAME":"STARLINK-2559","SEMIMAJOR_AXIS":"6925.358","BSTAR":"0.00022007000000","RCS_SIZE":"LARGE","LAUNCH_DATE":"2021-04-29","EPHEMERIS_TYPE":"0","NORAD_CAT_ID":"48298","COUNTRY_CODE":"US","DECAY_DATE":null,"APOAPSIS":"548.589"},{"RCS_SIZE":"LARGE","LAUNCH_DATE":"2021-04-29","EPHEMERIS_TYPE":"0","BSTAR":"0.00096017000000","SEMIMAJOR_AXIS":"6925.314","OBJECT_NAME":"STARLINK-2557","REV_AT_EPOCH":"11800","COUNTRY_CODE":"US","DECAY_DATE":null,"APOAPSIS":"548.189","NORAD_CAT_ID":"48299","MEAN_MOTION_DOT":"0.00014053","PERIAPSIS":"546.168","CENTER_NAME":"EARTH","MEAN_ANOMALY":"273.0062","TLE_LINE2":"2 48299  53.0545 255.8554 0001459  87.1094 273.0062 15.06411402118002","RA_OF_ASC_NODE":"255.8554","ARG_OF_PERICENTER":"87.1094","SITE":"AFETR","CLASSIFICATION_TYPE":"U","FILE":"3931588","ECCENTRICITY":"0.00014590","PERIOD":"95.591","TLE_LINE1":"1 48299U 21036Z   23163.56376271  .00014053  00000-0  96017-3 0  9995","TIME_SYSTEM":"UTC","REF_FRAME":"TEME","MEAN_MOTION":"15.06411402","OBJECT_TYPE":"PAYLOAD","EPOCH":"2023-06-12T13:31:49.098144","MEAN_ELEMENT_THEORY":"SGP4","MEAN_MOTION_DDOT":"0.0000000000000","OBJECT_ID":"2021-036Z","INCLINATION":"53.0545","GP_ID":"233777455","ELEMENT_SET_NO":"999"},{"OBJECT_TYPE":"PAYLOAD","INCLINATION":"53.0534","MEAN_MOTION_DDOT":"0.0000000000000","OBJECT_ID":"2021-036AA","MEAN_ELEMENT_THEORY":"SGP4","EPOCH":"2023-06-12T13:19:53.028768","GP_ID":"233771596","ELEMENT_SET_NO":"999","FILE":"3931334","ECCENTRICITY":"0.00006740","CLASSIFICATION_TYPE":"U","SITE":"AFETR","PERIOD":"95.594","TLE_LINE1":"1 48300U 21036AA  23163.55547487  .00017905  00000-0  12188-2 0  9991","REF_FRAME":"TEME","TIME_SYSTEM":"UTC","MEAN_MOTION":"15.06370282","MEAN_MOTION_DOT":"0.00017905","CENTER_NAME":"EARTH","PERIAPSIS":"546.838","RA_OF_ASC_NODE":"265.8877","TLE_LINE2":"2 48300  53.0534 265.8877 0000674  77.1662 282.9403 15.06370282117861","MEAN_ANOMALY":"282.9403","ARG_OF_PERICENTER":"77.1662","BSTAR":"0.00121880000000","EPHEMERIS_TYPE":"0","LAUNCH_DATE":"2021-04-29","RCS_SIZE":"LARGE","OBJECT_NAME":"STARLINK-2538","REV_AT_EPOCH":"11786","SEMIMAJOR_AXIS":"6925.440","NORAD_CAT_ID":"48300","APOAPSIS":"547.771","DECAY_DATE":null,"COUNTRY_CODE":"US"},{"ELEMENT_SET_NO":"999","GP_ID":"233766116","MEAN_ELEMENT_THEORY":"SGP4","EPOCH":"2023-06-12T13:14:34.905696","INCLINATION":"53.0540","MEAN_MOTION_DDOT":"0.0000000000000","OBJECT_ID":"2021-036AB","OBJECT_TYPE":"PAYLOAD","MEAN_MOTION":"15.06384223","TIME_SYSTEM":"UTC","REF_FRAME":"TEME","PERIOD":"95.593","TLE_LINE1":"1 48301U 21036AB  23163.55179289  .00018766  00000-0  12759-2 0  9993","SITE":"AFETR","ECCENTRICITY":"0.00011670","FILE":"3931287","CLASSIFICATION_TYPE":"U","ARG_OF_PERICENTER":"70.9393","MEAN_ANOMALY":"289.1722","RA_OF_ASC_NODE":"265.9021","TLE_LINE2":"2 48301  53.0540 265.9021 0001167  70.9393 289.1722 15.06384223117279","PERIAPSIS":"546.454","CENTER_NAME":"EARTH","MEAN_MOTION_DOT":"0.00018766","APOAPSIS":"548.070","DECAY_DATE":null,"COUNTRY_CODE":"US","NORAD_CAT_ID":"48301","SEMIMAJOR_AXIS":"6925.397","REV_AT_EPOCH":"11727","OBJECT_NAME":"STARLINK-2537","EPHEMERIS_TYPE":"0","LAUNCH_DATE":"2021-04-29","RCS_SIZE":"LARGE","BSTAR":"0.00127590000000"},{"RCS_SIZE":"LARGE","LAUNCH_DATE":"2021-04-29","EPHEMERIS_TYPE":"0","BSTAR":"0.00128530000000","SEMIMAJOR_AXIS":"6925.370","OBJECT_NAME":"STARLINK-2556","REV_AT_EPOCH":"11727","COUNTRY_CODE":"US","APOAPSIS":"548.165","DECAY_DATE":null,"NORAD_CAT_ID":"48302","MEAN_MOTION_DOT":"0.00018911","PERIAPSIS":"546.306","CENTER_NAME":"EARTH","MEAN_ANOMALY":"282.7981","TLE_LINE2":"2 48302  53.0532 265.9177 0001342  77.3158 282.7981 15.06392921117278","RA_OF_ASC_NODE":"265.9177","ARG_OF_PERICENTER":"77.3158","SITE":"AFETR","CLASSIFICATION_TYPE":"U","FILE":"3931287","ECCENTRICITY":"0.00013420","PERIOD":"95.593","TLE_LINE1":"1 48302U 21036AC  23163.54810516  .00018911  00000-0  12853-2 0  9995","TIME_SYSTEM":"UTC","REF_FRAME":"TEME","MEAN_MOTION":"15.06392921","OBJECT_TYPE":"PAYLOAD","EPOCH":"2023-06-12T13:09:16.285824","MEAN_ELEMENT_THEORY":"SGP4","OBJECT_ID":"2021-036AC","MEAN_MOTION_DDOT":"0.0000000000000","INCLINATION":"53.0532","GP_ID":"233764367","ELEMENT_SET_NO":"999"},{"OBJECT_TYPE":"PAYLOAD","OBJECT_ID":"2021-036AD","MEAN_MOTION_DDOT":"0.0000000000000","INCLINATION":"53.0534","EPOCH":"2023-06-12T13:02:35.977344","MEAN_ELEMENT_THEORY":"SGP4","GP_ID":"233764617","ELEMENT_SET_NO":"999","CLASSIFICATION_TYPE":"U","ECCENTRICITY":"0.00009970","FILE":"3931287","SITE":"AFETR","PERIOD":"95.592","TLE_LINE1":"1 48303U 21036AD  23163.54347196  .00003069  00000-0  22481-3 0  9992","REF_FRAME":"TEME","TIME_SYSTEM":"UTC","MEAN_MOTION":"15.06397580","MEAN_MOTION_DOT":"0.00003069","CENTER_NAME":"EARTH","PERIAPSIS":"546.531","TLE_LINE2":"2 48303  53.0534 265.9282 0000997  65.7957 294.3136 15.06397580117278","RA_OF_ASC_NODE":"265.9282","MEAN_ANOMALY":"294.3136","ARG_OF_PERICENTER":"65.7957","BSTAR":"0.00022481000000","RCS_SIZE":"LARGE","EPHEMERIS_TYPE":"0","LAUNCH_DATE":"2021-04-29","REV_AT_EPOCH":"11727","OBJECT_NAME":"STARLINK-2530","SEMIMAJOR_AXIS":"6925.356","NORAD_CAT_ID":"48303","COUNTRY_CODE":"US","DECAY_DATE":null,"APOAPSIS":"547.911"},{"INCLINATION":"53.0529","OBJECT_ID":"2021-036AE","MEAN_MOTION_DDOT":"0.0000000000000","MEAN_ELEMENT_THEORY":"SGP4","EPOCH":"2023-06-12T12:58:39.246528","OBJECT_TYPE":"PAYLOAD","ELEMENT_SET_NO":"999","GP_ID":"233771729","TLE_LINE1":"1 48304U 21036AE  23163.54073202  .00015264  00000-0  10418-2 0  9993","PERIOD":"95.593","FILE":"3931355","ECCENTRICITY":"0.00005710","CLASSIFICATION_TYPE":"U","SITE":"AFETR","MEAN_MOTION":"15.06384383","REF_FRAME":"TEME","TIME_SYSTEM":"UTC","CENTER_NAME":"EARTH","PERIAPSIS":"546.866","MEAN_MOTION_DOT":"0.00015264","ARG_OF_PERICENTER":"72.8075","RA_OF_ASC_NODE":"265.9533","TLE_LINE2":"2 48304  53.0529 265.9533 0000571  72.8075 287.2976 15.06384383117865","MEAN_ANOMALY":"287.2976","OBJECT_NAME":"STARLINK-2524","REV_AT_EPOCH":"11786","SEMIMAJOR_AXIS":"6925.396","BSTAR":"0.00104180000000","EPHEMERIS_TYPE":"0","LAUNCH_DATE":"2021-04-29","RCS_SIZE":"LARGE","NORAD_CAT_ID":"48304","DECAY_DATE":null,"APOAPSIS":"547.657","COUNTRY_CODE":"US"}];
